{"type": "FeatureCollection", "features": [ {"type": "Feature", "properties": {"norad_id": 45158, "name": "ONEWEB-0054", "group": "active", "lat": 8.38734753288024, "lon": 76.0500505494086, "alt_km": 1223.5479045691636, "timestamp": "2025-12-01T03:58:49.250174+00:00", "meta": {"OBJECT_NAME": "ONEWEB-0054", "OBJECT_ID": "2020-008AD", "EPOCH": "2025-11-30T18:46:29.067168", "MEAN_MOTION": 13.10374211, "ECCENTRICITY": 0.0001538, "INCLINATION": 87.8809, "RA_OF_ASC_NODE": 75.8137, "ARG_OF_PERICENTER": 104.4221, "MEAN_ANOMALY": 255.7077, "EPHEMERIS_TYPE": 0, "CLASSIFICATION_TYPE": "U", "NORAD_CAT_ID": 45158, "ELEMENT_SET_NO": 999, "REV_AT_EPOCH": 28204, "BSTAR": -0.0018028, "MEAN_MOTION_DOT": -6.17e-06, "MEAN_MOTION_DDOT": 0, "GROUP": "active"}, "tle": {"line1": "1 45158U 20008AD  25334.78228087 -.00000617  00000+0 -18028-2 0  9998", "line2": "2 45158  87.8809  75.8137 0001538 104.4221 255.7077 13.10374211282049"}}, "geometry": {"type": "Point", "coordinates": [76.0500505494086, 8.38734753288024]}}, {"type": "Feature", "properties": {"norad_id": 45159, "name": "ONEWEB-0056", "group": "active", "lat": 81.23084795627838, "lon": -118.1484019323555, "alt_km": 1213.3634185183391, "timestamp": "2025-12-01T03:58:49.250185+00:00", "meta": {"OBJECT_NAME": "ONEWEB-0056", "OBJECT_ID": "2020-008AE", "EPOCH": "2025-11-30T18:19:00.012576", "MEAN_MOTION": 13.10369749, "ECCENTRICITY": 0.0001371, "INCLINATION": 87.8813, "RA_OF_ASC_NODE": 75.8163, "ARG_OF_PERICENTER": 106.3004, "MEAN_ANOMALY": 253.8274, "EPHEMERIS_TYPE": 0, "CLASSIFICATION_TYPE": "U", "NORAD_CAT_ID": 45159, "ELEMENT_SET_NO": 999, "REV_AT_EPOCH": 28219, "BSTAR": -0.0011463, "MEAN_MOTION_DOT": -3.87e-06, "MEAN_MOTION_DDOT": 0, "GROUP": "active"}, "tle": {"line1": "1 45159U 20008AE  25334.76319459 -.00000387  00000+0 -11463-2 0  9991", "line2": "2 45159  87.8813  75.8163 0001371 106.3004 253.8274 13.10369749282193"}}, "geometry": {"type": "Point", "coordinates": [-118.1484019323555, 81.23084795627838]}}, {"type": "Feature", "properties": {"norad_id": 45160, "name": "ONEWEB-0057", "group": "active", "lat": 63.19763900088366, "lon": 79.95182213223866, "alt_km": 1214.796270785334, "timestamp": "2025-12-01T03:58:49.250194+00:00", "meta": {"OBJECT_NAME": "ONEWEB-0057", "OBJECT_ID": "2020-008AF", "EPOCH": "2025-11-30T18:29:44.438208", "MEAN_MOTION": 13.10369952, "ECCENTRICITY": 0.0001623, "INCLINATION": 87.8808, "RA_OF_ASC_NODE": 75.8276, "ARG_OF_PERICENTER": 111.5035, "MEAN_ANOMALY": 248.6266, "EPHEMERIS_TYPE": 0, "CLASSIFICATION_TYPE": "U", "NORAD_CAT_ID": 45160, "ELEMENT_SET_NO": 999, "REV_AT_EPOCH": 28236, "BSTAR": -0.0018636, "MEAN_MOTION_DOT": -6.38e-06, "MEAN_MOTION_DDOT": 0, "GROUP": "active"}, "tle": {"line1": "1 45160U 20008AF  25334.77065322 -.00000638  00000+0 -18636-2 0  9999", "line2": "2 45160  87.8808  75.8276 0001623 111.5035 248.6266 13.10369952282364"}}, "geometry": {"type": "Point", "coordinates": [79.95182213223866, 63.19763900088366]}}, {"type": "Feature", "properties": {"norad_id": 45161, "name": "ONEWEB-0058", "group": "active", "lat": 54.67523812772572, "lon": -107.23465621234432, "alt_km": 1215.3956608617946, "timestamp": "2025-12-01T03:58:49.250204+00:00", "meta": {"OBJECT_NAME": "ONEWEB-0058", "OBJECT_ID": "2020-008AG", "EPOCH": "2025-11-30T18:10:50.782080", "MEAN_MOTION": 13.10369866, "ECCENTRICITY": 0.0001786, "INCLINATION": 87.8809, "RA_OF_ASC_NODE": 75.8413, "ARG_OF_PERICENTER": 97.6686, "MEAN_ANOMALY": 262.4645, "EPHEMERIS_TYPE": 0, "CLASSIFICATION_TYPE": "U", "NORAD_CAT_ID": 45161, "ELEMENT_SET_NO": 999, "REV_AT_EPOCH": 28243, "BSTAR": -0.00032203, "MEAN_MOTION_DOT": -1e-06, "MEAN_MOTION_DDOT": 0, "GROUP": "active"}, "tle": {"line1": "1 45161U 20008AG  25334.75753220 -.00000100  00000+0 -32203-3 0  9990", "line2": "2 45161  87.8809  75.8413 0001786  97.6686 262.4645 13.10369866282432"}}, "geometry": {"type": "Point", "coordinates": [-107.23465621234432, 54.67523812772572]}}, {"type": "Feature", "properties": {"norad_id": 45162, "name": "ONEWEB-0059", "group": "active", "lat": 38.36694608200827, "lon": -105.91983923373685, "alt_km": 1217.8386507951927, "timestamp": "2025-12-01T03:58:49.250214+00:00", "meta": {"OBJECT_NAME": "ONEWEB-0059", "OBJECT_ID": "2020-008AH", "EPOCH": "2025-11-30T18:05:51.971136", "MEAN_MOTION": 13.10372043, "ECCENTRICITY": 0.0001696, "INCLINATION": 87.8806, "RA_OF_ASC_NODE": 75.842, "ARG_OF_PERICENTER": 104.2682, "MEAN_ANOMALY": 255.8634, "EPHEMERIS_TYPE": 0, "CLASSIFICATION_TYPE": "U", "NORAD_CAT_ID": 45162, "ELEMENT_SET_NO": 999, "REV_AT_EPOCH": 28233, "BSTAR": 0.00027368, "MEAN_MOTION_DOT": 1.08e-06, "MEAN_MOTION_DDOT": 0, "GROUP": "active"}, "tle": {"line1": "1 45162U 20008AH  25334.75407374  .00000108  00000+0  27368-3 0  9999", "line2": "2 45162  87.8806  75.8420 0001696 104.2682 255.8634 13.10372043282333"}}, "geometry": {"type": "Point", "coordinates": [-105.91983923373685, 38.36694608200827]}}, {"type": "Feature", "properties": {"norad_id": 45163, "name": "ONEWEB-0062", "group": "active", "lat": 20.141192546965776, "lon": 76.51485201132274, "alt_km": 1221.2583069764742, "timestamp": "2025-12-01T03:58:49.250224+00:00", "meta": {"OBJECT_NAME": "ONEWEB-0062", "OBJECT_ID": "2020-008AJ", "EPOCH": "2025-11-30T18:42:53.666784", "MEAN_MOTION": 13.10373824, "ECCENTRICITY": 0.0001732, "INCLINATION": 87.8805, "RA_OF_ASC_NODE": 75.8136, "ARG_OF_PERICENTER": 92.4203, "MEAN_ANOMALY": 267.7122, "EPHEMERIS_TYPE": 0, "CLASSIFICATION_TYPE": "U", "NORAD_CAT_ID": 45163, "ELEMENT_SET_NO": 999, "REV_AT_EPOCH": 28220, "BSTAR": -0.0023195, "MEAN_MOTION_DOT": -7.97e-06, "MEAN_MOTION_DDOT": 0, "GROUP": "active"}, "tle": {"line1": "1 45163U 20008AJ  25334.77978781 -.00000797  00000+0 -23195-2 0  9996", "line2": "2 45163  87.8805  75.8136 0001732  92.4203 267.7122 13.10373824282203"}}, "geometry": {"type": "Point", "coordinates": [76.51485201132274, 20.141192546965776]}}, {"type": "Feature", "properties": {"norad_id": 45164, "name": "ONEWEB-0065", "group": "active", "lat": -46.09834302269495, "lon": -102.04278689378475, "alt_km": 1222.9589493801022, "timestamp": "2025-12-01T03:58:49.250234+00:00", "meta": {"OBJECT_NAME": "ONEWEB-0065", "OBJECT_ID": "2020-008AK", "EPOCH": "2025-11-30T17:40:46.286112", "MEAN_MOTION": 13.11914637, "ECCENTRICITY": 0.0001279, "INCLINATION": 87.8808, "RA_OF_ASC_NODE": 75.8381, "ARG_OF_PERICENTER": 112.2782, "MEAN_ANOMALY": 247.8482, "EPHEMERIS_TYPE": 0, "CLASSIFICATION_TYPE": "U", "NORAD_CAT_ID": 45164, "ELEMENT_SET_NO": 999, "REV_AT_EPOCH": 28189, "BSTAR": -0.0075304, "MEAN_MOTION_DOT": -2.675e-05, "MEAN_MOTION_DDOT": 0, "GROUP": "active"}, "tle": {"line1": "1 45164U 20008AK  25334.73664683 -.00002675  00000+0 -75304-2 0  9992", "line2": "2 45164  87.8808  75.8381 0001279 112.2782 247.8482 13.11914637281894"}}, "geometry": {"type": "Point", "coordinates": [-102.04278689378475, -46.09834302269495]}}, {"type": "Feature", "properties": {"norad_id": 45245, "name": "JCSAT-17", "group": "active", "lat": -5.414930741015648, "lon": -94.00829600209047, "alt_km": 35773.19868172164, "timestamp": "2025-12-01T03:58:49.250249+00:00", "meta": {"OBJECT_NAME": "JCSAT-17", "OBJECT_ID": "2020-013A", "EPOCH": "2025-11-30T19:37:37.272864", "MEAN_MOTION": 1.00270749, "ECCENTRICITY": 0.0003352, "INCLINATION": 5.4057, "RA_OF_ASC_NODE": 354.8899, "ARG_OF_PERICENTER": 260.0852, "MEAN_ANOMALY": 245.3937, "EPHEMERIS_TYPE": 0, "CLASSIFICATION_TYPE": "U", "NORAD_CAT_ID": 45245, "ELEMENT_SET_NO": 999, "REV_AT_EPOCH": 2124, "BSTAR": 0, "MEAN_MOTION_DOT": -3.03e-06, "MEAN_MOTION_DDOT": 0, "GROUP": "active"}, "tle": {"line1": "1 45245U 20013A   25334.81779251 -.00000303  00000+0  00000+0 0  9998", "line2": "2 45245   5.4057 354.8899 0003352 260.0852 245.3937  1.00270749 21247"}}, "geometry": {"type": "Point", "coordinates": [-94.00829600209047, -5.414930741015648]}}, {"type": "Feature", "properties": {"norad_id": 45246, "name": "GEO-KOMPSAT-2B", "group": "active", "lat": -0.005780993578746359, "lon": -101.7651442578519, "alt_km": 35776.307651846175, "timestamp": "2025-12-01T03:58:49.250260+00:00", "meta": {"OBJECT_NAME": "GEO-KOMPSAT-2B", "OBJECT_ID": "2020-013B", "EPOCH": "2025-11-30T20:20:38.732928", "MEAN_MOTION": 1.00271603, "ECCENTRICITY": 0.0002335, "INCLINATION": 0.0122, "RA_OF_ASC_NODE": 241.3096, "ARG_OF_PERICENTER": 14.1984, "MEAN_ANOMALY": 247.8986, "EPHEMERIS_TYPE": 0, "CLASSIFICATION_TYPE": "U", "NORAD_CAT_ID": 45246, "ELEMENT_SET_NO": 999, "REV_AT_EPOCH": 2129, "BSTAR": 0, "MEAN_MOTION_DOT": -3.22e-06, "MEAN_MOTION_DDOT": 0, "GROUP": "active"}, "tle": {"line1": "1 45246U 20013B   25334.84767052 -.00000322  00000+0  00000+0 0  9999", "line2": "2 45246   0.0122 241.3096 0002335  14.1984 247.8986  1.00271603 21291"}}, "geometry": {"type": "Point", "coordinates": [-101.7651442578519, -0.005780993578746359]}}, {"type": "Feature", "properties": {"norad_id": 45254, "name": "MERIDIAN 9", "group": "active", "lat": 60.42940696862294, "lon": 34.08469465314429, "alt_km": 29160.384496908508, "timestamp": "2025-12-01T03:58:49.250272+00:00", "meta": {"OBJECT_NAME": "MERIDIAN 9", "OBJECT_ID": "2020-015A", "EPOCH": "2025-11-30T01:42:07.057728", "MEAN_MOTION": 2.00614779, "ECCENTRICITY": 0.69160686, "INCLINATION": 65.4384, "RA_OF_ASC_NODE": 340.4351, "ARG_OF_PERICENTER": 281.1829, "MEAN_ANOMALY": 13.8321, "EPHEMERIS_TYPE": 0, "CLASSIFICATION_TYPE": "U", "NORAD_CAT_ID": 45254, "ELEMENT_SET_NO": 999, "REV_AT_EPOCH": 4229, "BSTAR": 0, "MEAN_MOTION_DOT": -1.5e-06, "MEAN_MOTION_DDOT": 0, "GROUP": "active"}, "tle": {"line1": "1 45254U 20015A   25334.07091502 -.00000150  00000+0  00000+0 0  9994", "line2": "2 45254  65.4384 340.4351 6916068 281.1829  13.8321  2.00614779 42290"}}, "geometry": {"type": "Point", "coordinates": [34.08469465314429, 60.42940696862294]}}]}